STARLINK-11136 [DTC]    
1 60407U 24141K   26088.95241448 -.00001656  00000+0 -88148-5 0  9993
2 60407  53.1575 346.4973 0001129 102.1731 257.9413 15.69703052 94876
STARLINK-11196 [DTC]    
1 60408U 24141L   26088.88383731 -.00000001  00000+0  48522-5 0  9992
2 60408  53.1604 346.7770 0001038  87.7188 272.3949 15.69710824 94916
STARLINK-11174 [DTC]    
1 60409U 24141M   26089.00135667 -.00000741  00000+0 -12739-5 0  9994
2 60409  53.1581 346.0866 0000167  29.8702 330.2326 15.69711969 94881
STARLINK-11191 [DTC]    
1 60410U 24141N   26089.12380206 -.00000210  00000+0  31276-5 0  9997
2 60410  53.1580 345.4235 0001118  71.9376 288.1764 15.69705906 94956
STARLINK-32244          
1 60411U 24141P   26087.60457743  .00000283  00000+0  21673-4 0  9998
2 60411  53.1602 154.9370 0001253  68.6258 291.4876 15.30192301 92470
STARLINK-32186          
1 60412U 24141Q   26089.16897177 -.00000307  00000+0  17700-5 0  9996
2 60412  53.1607 147.6396 0000953  67.4949 292.6153 15.30197875 92655
STARLINK-32178          
1 60413U 24141R   26089.15949230 -.00002745  00000+0 -80677-4 0  9995
2 60413  53.1601 147.5735 0001440  99.7626 260.3538 15.30165748 92651
STARLINK-32234          
1 60414U 24141S   26087.59824676  .00000394  00000+0  25421-4 0  9990
2 60414  53.1614 154.8963 0001231  69.6926 290.4207 15.30191244 92474
STARLINK-32265          
1 60415U 24141T   26088.18291118  .00001136  00000+0  50472-4 0  9995
2 60415  53.1600 152.1454 0001094  82.6417 277.4708 15.30192825 92560
STARLINK-32197          
1 60416U 24141U   26087.86275609  .00002728  00000+0  10424-3 0  9997
2 60416  53.1590 143.7391 0000762 111.0937 249.0146 15.30186234 92591
STARLINK-32255          
1 60417U 24141V   26089.15316153  .00028671  00000+0  98054-3 0  9992
2 60417  53.1593 147.5351 0000817 158.6295 201.4740 15.30062475 92714
STARLINK-32236          
1 60418U 24141W   26089.14891495  .00000013  00000+0  12568-4 0  9996
2 60418  53.1604 147.5078 0001400  87.5726 272.5435 15.30188598 92717
STARLINK-32250          
1 60425U 24144A   26089.05622570 -.00000475  00000+0 -39269-5 0  9995
2 60425  53.1606 122.7981 0001034  84.7000 275.4119 15.30193418 91528
STARLINK-32226          
1 60426U 24144B   26088.14075536  .00002420  00000+0  93786-4 0  9992
2 60426  53.1581 127.0377 0001083  79.1429 280.9693 15.30208904 92284
STARLINK-32254          
1 60427U 24144C   26087.40964992 -.00000430  00000+0 -23859-5 0  9990
2 60427  53.1599 130.2961 0001206  73.6045 286.5089 15.30189366 92213
STARLINK-32193          
1 60428U 24144D   26089.05304065  .00002349  00000+0  91367-4 0  9990
2 60428  53.1622 122.7792 0001080  89.5323 270.5801 15.30214663 92465
STARLINK-32242          
1 60429U 24144E   26087.80468905  .00000731  00000+0  36795-4 0  9993
2 60429  53.1600 128.4950 0000988  77.5349 282.5762 15.30197710 92273
