[{"OBJECT_NAME":"STARLINK-11136 [DTC]","OBJECT_ID":"2024-141K","EPOCH":"2026-03-29T22:51:28.611072","MEAN_MOTION":15.69703052,"ECCENTRICITY":0.0001129,"INCLINATION":53.1575,"RA_OF_ASC_NODE":346.4973,"ARG_OF_PERICENTER":102.1731,"MEAN_ANOMALY":257.9413,"EPHEMERIS_TYPE":0,"CLASSIFICATION_TYPE":"U","NORAD_CAT_ID":60407,"ELEMENT_SET_NO":999,"REV_AT_EPOCH":9487,"BSTAR":-8.8148e-6,"MEAN_MOTION_DOT":-1.656e-5,"MEAN_MOTION_DDOT":0},{"OBJECT_NAME":"STARLINK-11196 [DTC]","OBJECT_ID":"2024-141L","EPOCH":"2026-03-29T21:12:43.543584","MEAN_MOTION":15.69710824,"ECCENTRICITY":0.0001038,"INCLINATION":53.1604,"RA_OF_ASC_NODE":346.777,"ARG_OF_PERICENTER":87.7188,"MEAN_ANOMALY":272.3949,"EPHEMERIS_TYPE":0,"CLASSIFICATION_TYPE":"U","NORAD_CAT_ID":60408,"ELEMENT_SET_NO":999,"REV_AT_EPOCH":9491,"BSTAR":4.8522e-6,"MEAN_MOTION_DOT":-1.0e-8,"MEAN_MOTION_DDOT":0},{"OBJECT_NAME":"STARLINK-11174 [DTC]","OBJECT_ID":"2024-141M","EPOCH":"2026-03-30T00:01:57.216288","MEAN_MOTION":15.69711969,"ECCENTRICITY":1.67e-5,"INCLINATION":53.1581,"RA_OF_ASC_NODE":346.0866,"ARG_OF_PERICENTER":29.8702,"MEAN_ANOMALY":330.2326,"EPHEMERIS_TYPE":0,"CLASSIFICATION_TYPE":"U","NORAD_CAT_ID":60409,"ELEMENT_SET_NO":999,"REV_AT_EPOCH":9488,"BSTAR":-1.2739e-6,"MEAN_MOTION_DOT":-7.41e-6,"MEAN_MOTION_DDOT":0},{"OBJECT_NAME":"STARLINK-11191 [DTC]","OBJECT_ID":"2024-141N","EPOCH":"2026-03-30T02:58:16.497984","MEAN_MOTION":15.69705906,"ECCENTRICITY":0.0001118,"INCLINATION":53.158,"RA_OF_ASC_NODE":345.4235,"ARG_OF_PERICENTER":71.9376,"MEAN_ANOMALY":288.1764,"EPHEMERIS_TYPE":0,"CLASSIFICATION_TYPE":"U","NORAD_CAT_ID":60410,"ELEMENT_SET_NO":999,"REV_AT_EPOCH":9495,"BSTAR":3.1276e-6,"MEAN_MOTION_DOT":-2.1e-6,"MEAN_MOTION_DDOT":0},{"OBJECT_NAME":"STARLINK-32244","OBJECT_ID":"2024-141P","EPOCH":"2026-03-28T14:30:35.489952","MEAN_MOTION":15.30192301,"ECCENTRICITY":0.0001253,"INCLINATION":53.1602,"RA_OF_ASC_NODE":154.937,"ARG_OF_PERICENTER":68.6258,"MEAN_ANOMALY":291.4876,"EPHEMERIS_TYPE":0,"CLASSIFICATION_TYPE":"U","NORAD_CAT_ID":60411,"ELEMENT_SET_NO":999,"REV_AT_EPOCH":9247,"BSTAR":2.1673e-5,"MEAN_MOTION_DOT":2.83e-6,"MEAN_MOTION_DDOT":0},{"OBJECT_NAME":"STARLINK-32186","OBJECT_ID":"2024-141Q","EPOCH":"2026-03-30T04:03:19.160928","MEAN_MOTION":15.30197875,"ECCENTRICITY":9.53e-5,"INCLINATION":53.1607,"RA_OF_ASC_NODE":147.6396,"ARG_OF_PERICENTER":67.4949,"MEAN_ANOMALY":292.6153,"EPHEMERIS_TYPE":0,"CLASSIFICATION_TYPE":"U","NORAD_CAT_ID":60412,"ELEMENT_SET_NO":999,"REV_AT_EPOCH":9265,"BSTAR":1.77e-6,"MEAN_MOTION_DOT":-3.07e-6,"MEAN_MOTION_DDOT":0},{"OBJECT_NAME":"STARLINK-32178","OBJECT_ID":"2024-141R","EPOCH":"2026-03-30T03:49:40.134720","MEAN_MOTION":15.30165748,"ECCENTRICITY":0.000144,"INCLINATION":53.1601,"RA_OF_ASC_NODE":147.5735,"ARG_OF_PERICENTER":99.7626,"MEAN_ANOMALY":260.3538,"EPHEMERIS_TYPE":0,"CLASSIFICATION_TYPE":"U","NORAD_CAT_ID":60413,"ELEMENT_SET_NO":999,"REV_AT_EPOCH":9265,"BSTAR":-8.0677e-5,"MEAN_MOTION_DOT":-2.745e-5,"MEAN_MOTION_DDOT":0},{"OBJECT_NAME":"STARLINK-32234","OBJECT_ID":"2024-141S","EPOCH":"2026-03-28T14:21:28.520064","MEAN_MOTION":15.30191244,"ECCENTRICITY":0.0001231,"INCLINATION":53.1614,"RA_OF_ASC_NODE":154.8963,"ARG_OF_PERICENTER":69.6926,"MEAN_ANOMALY":290.4207,"EPHEMERIS_TYPE":0,"CLASSIFICATION_TYPE":"U","NORAD_CAT_ID":60414,"ELEMENT_SET_NO":999,"REV_AT_EPOCH":9247,"BSTAR":2.5421e-5,"MEAN_MOTION_DOT":3.94e-6,"MEAN_MOTION_DDOT":0},{"OBJECT_NAME":"STARLINK-32265","OBJECT_ID":"2024-141T","EPOCH":"2026-03-29T04:23:23.525952","MEAN_MOTION":15.30192825,"ECCENTRICITY":0.0001094,"INCLINATION":53.16,"RA_OF_ASC_NODE":152.1454,"ARG_OF_PERICENTER":82.6417,"MEAN_ANOMALY":277.4708,"EPHEMERIS_TYPE":0,"CLASSIFICATION_TYPE":"U","NORAD_CAT_ID":60415,"ELEMENT_SET_NO":999,"REV_AT_EPOCH":9256,"BSTAR":5.0472e-5,"MEAN_MOTION_DOT":1.136e-5,"MEAN_MOTION_DDOT":0},{"OBJECT_NAME":"STARLINK-32197","OBJECT_ID":"2024-141U","EPOCH":"2026-03-28T20:42:22.126176","MEAN_MOTION":15.30186234,"ECCENTRICITY":7.621e-5,"INCLINATION":53.159,"RA_OF_ASC_NODE":143.7391,"ARG_OF_PERICENTER":111.0937,"MEAN_ANOMALY":249.0146,"EPHEMERIS_TYPE":0,"CLASSIFICATION_TYPE":"U","NORAD_CAT_ID":60416,"ELEMENT_SET_NO":999,"REV_AT_EPOCH":9259,"BSTAR":0.00010423643,"MEAN_MOTION_DOT":2.728e-5,"MEAN_MOTION_DDOT":0},{"OBJECT_NAME":"STARLINK-32255","OBJECT_ID":"2024-141V","EPOCH":"2026-03-30T03:40:33.156192","MEAN_MOTION":15.30062475,"ECCENTRICITY":8.17e-5,"INCLINATION":53.1593,"RA_OF_ASC_NODE":147.5351,"ARG_OF_PERICENTER":158.6295,"MEAN_ANOMALY":201.474,"EPHEMERIS_TYPE":0,"CLASSIFICATION_TYPE":"U","NORAD_CAT_ID":60417,"ELEMENT_SET_NO":999,"REV_AT_EPOCH":9271,"BSTAR":0.00098054,"MEAN_MOTION_DOT":0.00028671,"MEAN_MOTION_DDOT":0},{"OBJECT_NAME":"STARLINK-32236","OBJECT_ID":"2024-141W","EPOCH":"2026-03-30T03:34:26.251680","MEAN_MOTION":15.30188598,"ECCENTRICITY":0.00014,"INCLINATION":53.1604,"RA_OF_ASC_NODE":147.5078,"ARG_OF_PERICENTER":87.5726,"MEAN_ANOMALY":272.5435,"EPHEMERIS_TYPE":0,"CLASSIFICATION_TYPE":"U","NORAD_CAT_ID":60418,"ELEMENT_SET_NO":999,"REV_AT_EPOCH":9271,"BSTAR":1.2568e-5,"MEAN_MOTION_DOT":1.3e-7,"MEAN_MOTION_DDOT":0},{"OBJECT_NAME":"STARLINK-32250","OBJECT_ID":"2024-144A","EPOCH":"2026-03-30T01:20:57.900480","MEAN_MOTION":15.30193418,"ECCENTRICITY":0.0001034,"INCLINATION":53.1606,"RA_OF_ASC_NODE":122.7981,"ARG_OF_PERICENTER":84.7,"MEAN_ANOMALY":275.4119,"EPHEMERIS_TYPE":0,"CLASSIFICATION_TYPE":"U","NORAD_CAT_ID":60425,"ELEMENT_SET_NO":999,"REV_AT_EPOCH":9152,"BSTAR":-3.9269e-6,"MEAN_MOTION_DOT":-4.75e-6,"MEAN_MOTION_DDOT":0},{"OBJECT_NAME":"STARLINK-32226","OBJECT_ID":"2024-144B","EPOCH":"2026-03-29T03:22:41.263104","MEAN_MOTION":15.30208904,"ECCENTRICITY":0.0001083,"INCLINATION":53.1581,"RA_OF_ASC_NODE":127.0377,"ARG_OF_PERICENTER":79.1429,"MEAN_ANOMALY":280.9693,"EPHEMERIS_TYPE":0,"CLASSIFICATION_TYPE":"U","NORAD_CAT_ID":60426,"ELEMENT_SET_NO":999,"REV_AT_EPOCH":9228,"BSTAR":9.3786e-5,"MEAN_MOTION_DOT":2.42e-5,"MEAN_MOTION_DDOT":0},{"OBJECT_NAME":"STARLINK-32254","OBJECT_ID":"2024-144C","EPOCH":"2026-03-28T09:49:53.753088","MEAN_MOTION":15.30189366,"ECCENTRICITY":0.0001206,"INCLINATION":53.1599,"RA_OF_ASC_NODE":130.2961,"ARG_OF_PERICENTER":73.6045,"MEAN_ANOMALY":286.5089,"EPHEMERIS_TYPE":0,"CLASSIFICATION_TYPE":"U","NORAD_CAT_ID":60427,"ELEMENT_SET_NO":999,"REV_AT_EPOCH":9221,"BSTAR":-2.3859e-6,"MEAN_MOTION_DOT":-4.3e-6,"MEAN_MOTION_DDOT":0},{"OBJECT_NAME":"STARLINK-32193","OBJECT_ID":"2024-144D","EPOCH":"2026-03-30T01:16:22.712160","MEAN_MOTION":15.30214663,"ECCENTRICITY":0.000108,"INCLINATION":53.1622,"RA_OF_ASC_NODE":122.7792,"ARG_OF_PERICENTER":89.5323,"MEAN_ANOMALY":270.5801,"EPHEMERIS_TYPE":0,"CLASSIFICATION_TYPE":"U","NORAD_CAT_ID":60428,"ELEMENT_SET_NO":999,"REV_AT_EPOCH":9246,"BSTAR":9.1367e-5,"MEAN_MOTION_DOT":2.349e-5,"MEAN_MOTION_DDOT":0},{"OBJECT_NAME":"STARLINK-32242","OBJECT_ID":"2024-144E","EPOCH":"2026-03-28T19:18:45.133920","MEAN_MOTION":15.3019771,"ECCENTRICITY":9.882e-5,"INCLINATION":53.16,"RA_OF_ASC_NODE":128.495,"ARG_OF_PERICENTER":77.5349,"MEAN_ANOMALY":282.5762,"EPHEMERIS_TYPE":0,"CLASSIFICATION_TYPE":"U","NORAD_CAT_ID":60429,"ELEMENT_SET_NO":999,"REV_AT_EPOCH":9227,"BSTAR":3.67946e-5,"MEAN_MOTION_DOT":7.31e-6,"MEAN_MOTION_DDOT":0}]
